     2.10           N: GPS NAV DATA                         RINEX VERSION / TYPE
teqc  2012Apr13     CORS-ADM Account    20121102 23:45:08UTCPGM / RUN BY / DATE
Solaris x86 5.10|AMD64|cc SC5.8 -xarch=amd64|=+|=+          COMMENT
     2              NAVIGATION DATA                         COMMENT
RINGO/GLOBAL        NATIONAL GEODETIC SURVEY                COMMENT
    2.5146D-08 -7.4506D-09 -1.1921D-07  1.1921D-07          ION ALPHA
    1.3312D+05 -4.9152D+04 -1.3107D+05 -1.3107D+05          ION BETA
   -9.313225746155D-10-8.881784197001D-16   233472     1712 DELTA-UTC: A0,A1,T,W
                                                            END OF HEADER
22 12 10 28 18  0  0.0 1.501701772210D-04 5.684341886080D-13 0.000000000000D+00
    6.400000000000D+01 1.112812500000D+02 5.135571060010D-09-7.654064325590D-01
    5.671754479410D-06 6.230580154810D-03 9.503215551380D-06 5.153682880400D+03
    6.480000000000D+04-3.911554813380D-08-2.931372572000D+00 1.136213541030D-07
    9.268223952220D-01 1.780937500000D+02-2.010394121970D+00-8.472495770600D-09
    6.964575816820D-11 1.000000000000D+00 1.712000000000D+03 0.000000000000D+00
    2.800000000000D+00 0.000000000000D+00-1.722946763040D-08 6.400000000000D+01
    5.760000000000D+04
22 12 10 28 21 59 44.0 1.501743681730D-04 5.684341886080D-13 0.000000000000D+00
    4.000000000000D+00 9.228125000000D+01 5.217360321550D-09 1.332427227570D+00
    4.844740033150D-06 6.229500402700D-03 9.661540389060D-06 5.153681596760D+03
    7.918400000000D+04-1.788139343260D-07-2.931495274260D+00 9.313225746160D-09
    9.268237484210D-01 1.775625000000D+02-2.010197909540D+00-8.437137211100D-09
    1.517920372730D-10 1.000000000000D+00 1.712000000000D+03 0.000000000000D+00
    2.000000000000D+00 0.000000000000D+00-1.722946763040D-08 4.000000000000D+00
    8.640000000000D+04
22 12 10 29  0  0  0.0 1.501780934630D-04 5.684341886080D-13 0.000000000000D+00
    1.100000000000D+01 9.337500000000D+01 5.137356762220D-09 2.385171564810D+00
    4.855915904040D-06 6.230083992700D-03 1.012906432150D-05 5.153678710940D+03
    8.640000000000D+04 3.539025783540D-08-2.931555485040D+00-1.303851604460D-07
    9.268261242000D-01 1.664062500000D+02-2.010426841590D+00-8.183198119130D-09
    1.907222296760D-10 1.000000000000D+00 1.712000000000D+03 0.000000000000D+00
    2.000000000000D+00 0.000000000000D+00-1.722946763040D-08 1.100000000000D+01
    8.640000000000D+04
22 12 10 29  2  0  0.0 1.501818187530D-04 5.684341886080D-13 0.000000000000D+00
    6.500000000000D+01 1.062812500000D+02 5.043067206850D-09-2.847855794550D+00
    5.366280674930D-06 6.228072685190D-03 1.046434044840D-05 5.153682430270D+03
    9.360000000000D+04 1.192092895510D-07-2.931614518170D+00-6.891787052160D-08
    9.268275432300D-01 1.584375000000D+02-2.010403483180D+00-8.189269687380D-09
    2.307238962910D-10 1.000000000000D+00 1.712000000000D+03 0.000000000000D+00
    2.000000000000D+00 0.000000000000D+00-1.722946763040D-08 6.500000000000D+01
    8.695800000000D+04
22 12 10 29  4  0  0.0 1.501855440440D-04 5.684341886080D-13 0.000000000000D+00
    6.600000000000D+01 1.124375000000D+02 5.026637951080D-09-1.797779604830D+00
    5.802139639850D-06 6.228318321520D-03 1.030601561070D-05 5.153681255340D+03
    1.008000000000D+05 1.322478055950D-07-2.931673579100D+00 1.862645149230D-08
    9.268293850440D-01 1.592812500000D+02-2.010300326970D+00-8.202484523550D-09
    2.571535686210D-10 1.000000000000D+00 1.712000000000D+03 0.000000000000D+00
    2.000000000000D+00 0.000000000000D+00-1.722946763040D-08 6.600000000000D+01
    9.361800000000D+04
22 12 10 29  6  0  0.0 1.501892693340D-04 5.684341886080D-13 0.000000000000D+00
    7.100000000000D+01 1.104375000000D+02 5.024137846940D-09-7.474242581580D-01
    5.817040801050D-06 6.228682119400D-03 1.016631722450D-05 5.153683427810D+03
    1.080000000000D+05-9.313225746160D-09-2.931733086220D+00 1.229345798490D-07
    9.268303564220D-01 1.674687500000D+02-2.010476495960D+00-8.377848971040D-09
    2.289381076200D-10 1.000000000000D+00 1.712000000000D+03 0.000000000000D+00
    2.000000000000D+00 0.000000000000D+00-1.722946763040D-08 7.100000000000D+01
    1.008180000000D+05
22 12 10 29  8  0  0.0 1.501929946240D-04 5.684341886080D-13 0.000000000000D+00
    7.800000000000D+01 9.553125000000D+01 5.038424156300D-09 3.026975702150D-01
    4.963949322700D-06 6.226482684720D-03 9.858980774880D-06 5.153679199220D+03
    1.152000000000D+05-1.471489667890D-07-2.931792847890D+00 8.754432201390D-08
    9.268319436880D-01 1.732500000000D+02-2.010418799930D+00-8.328918361450D-09
    1.450060400840D-10 1.000000000000D+00 1.712000000000D+03 0.000000000000D+00
    2.000000000000D+00 0.000000000000D+00-1.722946763040D-08 7.800000000000D+01
    1.080180000000D+05
22 12 10 29 10  0  0.0 1.501967199150D-04 5.684341886080D-13 0.000000000000D+00
    8.200000000000D+01 8.862500000000D+01 4.983779167130D-09 1.352735810370D+00
    4.634261131290D-06 6.227113073690D-03 9.991228580470D-06 5.153681238170D+03
    1.224000000000D+05-1.378357410430D-07-2.931852641740D+00-3.539025783540D-08
    9.268326809990D-01 1.691562500000D+02-2.010276525300D+00-8.319632094360D-09
    9.500395609100D-11 1.000000000000D+00 1.712000000000D+03 0.000000000000D+00
    0.000000000000D+00 0.000000000000D+00-1.722946763040D-08 8.200000000000D+01
    1.219980000000D+05
22 12 10 29 11 59 44.0 1.502092927690D-04 6.821210263300D-13 0.000000000000D+00
    1.200000000000D+01 8.940625000000D+01 4.916990526680D-09 2.400797967120D+00
    4.636123776440D-06 6.227688398210D-03 1.044571399690D-05 5.153678459170D+03
    1.295840000000D+05 7.264316082000D-08-2.931911810920D+00-1.061707735060D-07
    9.268344379630D-01 1.585000000000D+02-2.010492074570D+00-8.097122991960D-09
    1.157191058800D-10 0.000000000000D+00 1.712000000000D+03 0.000000000000D+00
    2.000000000000D+00 0.000000000000D+00-1.722946763040D-08 1.200000000000D+01
    1.259400000000D+05
22 12 10 29 12  0  0.0 1.502004452050D-04 5.684341886080D-13 0.000000000000D+00
    8.300000000000D+01 8.940625000000D+01 4.916990526680D-09 2.403133154500D+00
    4.636123776440D-06 6.227684323680D-03 1.044571399690D-05 5.153678489690D+03
    1.296000000000D+05 7.264316082000D-08-2.931911925030D+00-1.061707735060D-07
    9.268344365000D-01 1.585000000000D+02-2.010493669150D+00-8.097122991960D-09
    1.157191058800D-10 1.000000000000D+00 1.712000000000D+03 0.000000000000D+00
    2.000000000000D+00 0.000000000000D+00-1.722946763040D-08 8.300000000000D+01
    1.238580000000D+05
22 12 10 29 13 59 44.0 1.502144150440D-04 6.821210263300D-13 0.000000000000D+00
    3.500000000000D+01 1.012500000000D+02 4.821272253910D-09-2.832224270560D+00
    5.224719643590D-06 6.225802819240D-03 1.086108386520D-05 5.153681943890D+03
    1.367840000000D+05 1.676380634310D-08-2.931969461600D+00-3.166496753690D-08
    9.268352674380D-01 1.506562500000D+02-2.010475575780D+00-8.033548915270D-09
    6.714565402890D-11 0.000000000000D+00 1.712000000000D+03 0.000000000000D+00
    2.000000000000D+00 0.000000000000D+00-1.722946763040D-08 3.500000000000D+01
    1.317900000000D+05
22 12 10 29 16  0  0.0 1.502190716570D-04 6.821210263300D-13 0.000000000000D+00
    3.900000000000D+01 1.058437500000D+02 4.916633368940D-09-1.779785177020D+00
    5.358830094340D-06 6.225922959860D-03 1.098215579990D-05 5.153681186680D+03
    1.440000000000D+05 1.750886440280D-07-2.932026977690D+00-2.793967723850D-08
    9.268352542710D-01 1.507500000000D+02-2.010403025290D+00-8.108552039450D-09
   -3.714440435640D-11 0.000000000000D+00 1.712000000000D+03 0.000000000000D+00
    2.000000000000D+00 0.000000000000D+00-1.722946763040D-08 3.900000000000D+01
    1.368000000000D+05
22 12 10 29 18  0  0.0 1.502241939310D-04 6.821210263300D-13 0.000000000000D+00
    5.200000000000D+01 1.038750000000D+02 5.056996358480D-09-7.293955263890D-01
    5.278736352920D-06 6.226383731700D-03 1.039914786820D-05 5.153683807370D+03
    1.512000000000D+05-5.960464477540D-08-2.932086088360D+00 9.872019290920D-08
    9.268336494500D-01 1.605937500000D+02-2.010613921020D+00-8.381063390650D-09
   -7.143154683920D-11 0.000000000000D+00 1.712000000000D+03 0.000000000000D+00
    2.000000000000D+00 0.000000000000D+00-1.722946763040D-08 5.200000000000D+01
    1.440000000000D+05
22 12 10 29 19 59 44.0 1.502344384790D-04 7.958078640510D-13 0.000000000000D+00
    1.300000000000D+01 9.090625000000D+01 5.198073527170D-09 3.184175027270D-01
    4.837289452550D-06 6.224366137760D-03 1.011602580550D-05 5.153679986950D+03
    1.583840000000D+05-3.911554813380D-08-2.932146688270D+00 3.352761268620D-08
    9.268331140220D-01 1.674375000000D+02-2.010580611840D+00-8.422136765770D-09
   -4.785913679250D-11 1.000000000000D+00 1.712000000000D+03 0.000000000000D+00
    2.000000000000D+00 0.000000000000D+00-1.722946763040D-08 1.300000000000D+01
    1.527000000000D+05
22 12 10 29 20  0  0.0 1.502293162050D-04 6.821210263300D-13 0.000000000000D+00
    5.300000000000D+01 9.090625000000D+01 5.198073527170D-09 3.207502909140D-01
    4.837289452550D-06 6.224368582480D-03 1.011602580550D-05 5.153679969790D+03
    1.584000000000D+05-3.911554813380D-08-2.932146834570D+00 3.352761268620D-08
    9.268331330400D-01 1.674375000000D+02-2.010579568780D+00-8.422136765770D-09
   -4.785913679250D-11 1.000000000000D+00 1.712000000000D+03 0.000000000000D+00
    2.000000000000D+00 0.000000000000D+00-1.722946763040D-08 5.300000000000D+01
    1.512000000000D+05
22 12 10 29 21 59 44.0 1.502395607530D-04 7.958078640510D-13 0.000000000000D+00
    8.100000000000D+01 8.378125000000D+01 5.155214921610D-09 1.368461073760D+00
    4.397705197330D-06 6.224857294000D-03 1.033022999760D-05 5.153681818010D+03
    1.655840000000D+05-1.713633537290D-07-2.932207686100D+00-7.450580596920D-09
    9.268331622990D-01 1.648437500000D+02-2.010442313420D+00-8.351062064090D-09
    3.428714256960D-11 1.000000000000D+00 1.712000000000D+03 0.000000000000D+00
    2.000000000000D+00 0.000000000000D+00-1.722946763040D-08 8.100000000000D+01
    1.584000000000D+05
